SOYUZ-MS 28             
1 66664U 25275A   26076.19332186  .00012290  00000+0  23614-3 0  9995
2 66664  51.6337  35.2624 0006226 201.0018 159.0715 15.48337753554520
DUPLEX                  
1 66906U 98067XS  26076.16232389  .00026558  00000+0  37023-3 0  9995
2 66906  51.6297  32.0587 0002872 144.1909 215.9276 15.56715573 16296
ISS OBJECT XT           
1 66907U 98067XT  26076.15474278  .00155646  00000+0  11555-2 0  9992
2 66907  51.6248  27.4856 0004898 129.1683 230.9750 15.71838586 16350
ISS OBJECT XU           
1 66908U 98067XU  26076.02515758  .00153187  00000+0  11325-2 0  9991
2 66908  51.6245  28.1163 0005124 129.6122 230.5329 15.71945163 16339
SILVERSAT               
1 66909U 98067XV  26076.13820547  .00197318  00000+0  12396-2 0  9992
2 66909  51.6238  26.6181 0005570 131.0135 229.1347 15.75587031 16368
ISS OBJECT XW           
1 66910U 98067XW  26076.08971333  .00141178  00000+0  10919-2 0  9990
2 66910  51.6242  27.7936 0005506 131.8340 228.3129 15.70910501 16344
ISS OBJECT XX           
1 66911U 98067XX  26076.11809003  .00257633  00000+0  13355-2 0  9990
2 66911  51.6215  25.7089 0007042 135.4242 224.7327 15.79712162 16364
ISS OBJECT XY           
1 66912U 98067XY  26076.11918077  .00076876  00000+0  75961-3 0  9993
2 66912  51.6277  29.5129 0003594 133.6570 226.4723 15.65191911 16314
KNACKSAT-2              
1 67683U 98067XZ  26076.26049524  .00031723  00000+0  51352-3 0  9997
2 67683  51.6316  34.2124 0009615 212.5523 147.4875 15.52473462  5966
GXIBA-1                 
1 67684U 98067YA  26076.15525853  .00071908  00000+0  10242-2 0  9991
2 67684  51.6309  34.2605 0011803 202.1834 157.8648 15.55594857  5952
CORAL                   
1 67685U 98067YB  26076.12540673  .00033584  00000+0  53452-3 0  9995
2 67685  51.6322  34.8103 0011539 208.7599 151.2756 15.52891550  5947
ISS OBJECT YC           
1 67686U 98067YC  26076.18125465  .00042474  00000+0  65716-3 0  9994
2 67686  51.6318  34.4356 0008506 178.1520 181.9503 15.53596478  5956
LEOPARD                 
1 67687U 98067YD  26076.25722079  .00033202  00000+0  53337-3 0  9992
2 67687  51.6319  34.1927 0008164 181.8584 178.2377 15.52675757  5887
ISS OBJECT YE           
1 67688U 98067YE  26076.18513148  .00039222  00000+0  61484-3 0  9990
2 67688  51.6319  34.4615 0008254 178.8227 181.2784 15.53273796  5878
CREW DRAGON 12          
1 67796U 26031A   26076.19332186  .00012290  00000+0  23614-3 0  9993
2 67796  51.6337  35.2624 0006226 201.0018 159.0715 15.48337753557418
